{"type": "FeatureCollection", "features": [ {"type": "Feature", "properties": {"norad_id": 36539, "name": "COSMOS 2251 DEB", "group": "cosmos-2251-debris", "lat": 72.25281841454812, "lon": 169.9213856995477, "alt_km": 691.5662465165578, "timestamp": "2025-12-13T15:35:12.501490+00:00", "meta": {"OBJECT_NAME": "COSMOS 2251 DEB", "OBJECT_ID": "1993-036BCZ", "EPOCH": "2025-12-12T21:02:25.139904", "MEAN_MOTION": 14.5930524, "ECCENTRICITY": 0.0027205, "INCLINATION": 74.024, "RA_OF_ASC_NODE": 54.9185, "ARG_OF_PERICENTER": 200.0292, "MEAN_ANOMALY": 159.9808, "EPHEMERIS_TYPE": 0, "CLASSIFICATION_TYPE": "U", "NORAD_CAT_ID": 36539, "ELEMENT_SET_NO": 999, "REV_AT_EPOCH": 83949, "BSTAR": 0.0010825632, "MEAN_MOTION_DOT": 5.117e-05, "MEAN_MOTION_DDOT": 0}, "tle": {"line1": "1 36539U 93036BCZ 25346.87667986  .00005117  00000+0  10826-2 0  9996", "line2": "2 36539  74.0240  54.9185 0027205 200.0292 159.9808 14.59305240839494"}}, "geometry": {"type": "Point", "coordinates": [169.9213856995477, 72.25281841454812]}}, {"type": "Feature", "properties": {"norad_id": 36540, "name": "COSMOS 2251 DEB", "group": "cosmos-2251-debris", "lat": 53.98001746456995, "lon": -158.01949945135516, "alt_km": 702.9853104967979, "timestamp": "2025-12-13T15:35:12.501500+00:00", "meta": {"OBJECT_NAME": "COSMOS 2251 DEB", "OBJECT_ID": "1993-036BDA", "EPOCH": "2025-12-12T22:51:44.755776", "MEAN_MOTION": 14.58485322, "ECCENTRICITY": 0.00149812, "INCLINATION": 74.0293, "RA_OF_ASC_NODE": 180.1108, "ARG_OF_PERICENTER": 250.2171, "MEAN_ANOMALY": 109.7379, "EPHEMERIS_TYPE": 0, "CLASSIFICATION_TYPE": "U", "NORAD_CAT_ID": 36540, "ELEMENT_SET_NO": 999, "REV_AT_EPOCH": 86013, "BSTAR": 0.0015332514, "MEAN_MOTION_DOT": 7.108e-05, "MEAN_MOTION_DDOT": 0}, "tle": {"line1": "1 36540U 93036BDA 25346.95260134  .00007108  00000+0  15333-2 0  9991", "line2": "2 36540  74.0293 180.1108 0014981 250.2171 109.7379 14.58485322860131"}}, "geometry": {"type": "Point", "coordinates": [-158.01949945135516, 53.98001746456995]}}, {"type": "Feature", "properties": {"norad_id": 36550, "name": "COSMOS 2251 DEB", "group": "cosmos-2251-debris", "lat": 24.796658694962762, "lon": 3.5004483111632863, "alt_km": 797.1038747438088, "timestamp": "2025-12-13T15:35:12.501509+00:00", "meta": {"OBJECT_NAME": "COSMOS 2251 DEB", "OBJECT_ID": "1993-036BDL", "EPOCH": "2025-12-12T06:53:46.055040", "MEAN_MOTION": 14.27197589, "ECCENTRICITY": 0.00783785, "INCLINATION": 74.0439, "RA_OF_ASC_NODE": 193.5589, "ARG_OF_PERICENTER": 244.3101, "MEAN_ANOMALY": 114.994, "EPHEMERIS_TYPE": 0, "CLASSIFICATION_TYPE": "U", "NORAD_CAT_ID": 36550, "ELEMENT_SET_NO": 999, "REV_AT_EPOCH": 84589, "BSTAR": 0.00090622054, "MEAN_MOTION_DOT": 2.261e-05, "MEAN_MOTION_DDOT": 0}, "tle": {"line1": "1 36550U 93036BDL 25346.28733860  .00002261  00000+0  90622-3 0  9999", "line2": "2 36550  74.0439 193.5589 0078378 244.3101 114.9940 14.27197589845891"}}, "geometry": {"type": "Point", "coordinates": [3.5004483111632863, 24.796658694962762]}}, {"type": "Feature", "properties": {"norad_id": 36551, "name": "COSMOS 2251 DEB", "group": "cosmos-2251-debris", "lat": 71.83681857927645, "lon": 131.05133736787178, "alt_km": 577.2344293888918, "timestamp": "2025-12-13T15:35:12.501519+00:00", "meta": {"OBJECT_NAME": "COSMOS 2251 DEB", "OBJECT_ID": "1993-036BDM", "EPOCH": "2025-12-12T08:47:24.108864", "MEAN_MOTION": 15.02551083, "ECCENTRICITY": 0.00509575, "INCLINATION": 73.8872, "RA_OF_ASC_NODE": 15.4722, "ARG_OF_PERICENTER": 324.547, "MEAN_ANOMALY": 35.2333, "EPHEMERIS_TYPE": 0, "CLASSIFICATION_TYPE": "U", "NORAD_CAT_ID": 36551, "ELEMENT_SET_NO": 999, "REV_AT_EPOCH": 66926, "BSTAR": 0.0018916563, "MEAN_MOTION_DOT": 0.00025929, "MEAN_MOTION_DDOT": 0}, "tle": {"line1": "1 36551U 93036BDM 25346.36625126  .00025929  00000+0  18917-2 0  9996", "line2": "2 36551  73.8872  15.4722 0050957 324.5470  35.2333 15.02551083669267"}}, "geometry": {"type": "Point", "coordinates": [131.05133736787178, 71.83681857927645]}}, {"type": "Feature", "properties": {"norad_id": 36557, "name": "COSMOS 2251 DEB", "group": "cosmos-2251-debris", "lat": 1.0967865177251768, "lon": 124.77272443788684, "alt_km": 635.9745283726352, "timestamp": "2025-12-13T15:35:12.501529+00:00", "meta": {"OBJECT_NAME": "COSMOS 2251 DEB", "OBJECT_ID": "1993-036BDT", "EPOCH": "2025-12-11T16:28:44.136480", "MEAN_MOTION": 14.78160391, "ECCENTRICITY": 0.00210346, "INCLINATION": 73.9786, "RA_OF_ASC_NODE": 128.3248, "ARG_OF_PERICENTER": 280.1534, "MEAN_ANOMALY": 79.7268, "EPHEMERIS_TYPE": 0, "CLASSIFICATION_TYPE": "U", "NORAD_CAT_ID": 36557, "ELEMENT_SET_NO": 999, "REV_AT_EPOCH": 33881, "BSTAR": 0.0052972788, "MEAN_MOTION_DOT": 0.00038702, "MEAN_MOTION_DDOT": 0}, "tle": {"line1": "1 36557U 93036BDT 25345.68662195  .00038702  00000+0  52973-2 0  9996", "line2": "2 36557  73.9786 128.3248 0021034 280.1534  79.7268 14.78160391338811"}}, "geometry": {"type": "Point", "coordinates": [124.77272443788684, 1.0967865177251768]}}, {"type": "Feature", "properties": {"norad_id": 36558, "name": "COSMOS 2251 DEB", "group": "cosmos-2251-debris", "lat": -42.74178055144404, "lon": -11.843755834431832, "alt_km": 705.5901645923595, "timestamp": "2025-12-13T15:35:12.501538+00:00", "meta": {"OBJECT_NAME": "COSMOS 2251 DEB", "OBJECT_ID": "1993-036BDU", "EPOCH": "2025-12-09T18:10:09.606432", "MEAN_MOTION": 14.55323693, "ECCENTRICITY": 0.00129627, "INCLINATION": 74.0418, "RA_OF_ASC_NODE": 160.1895, "ARG_OF_PERICENTER": 248.6111, "MEAN_ANOMALY": 111.367, "EPHEMERIS_TYPE": 0, "CLASSIFICATION_TYPE": "U", "NORAD_CAT_ID": 36558, "ELEMENT_SET_NO": 999, "REV_AT_EPOCH": 85225, "BSTAR": 0.0013992246, "MEAN_MOTION_DOT": 6.051e-05, "MEAN_MOTION_DDOT": 0}, "tle": {"line1": "1 36558U 93036BDU 25343.75705563  .00006051  00000+0  13992-2 0  9990", "line2": "2 36558  74.0418 160.1895 0012962 248.6111 111.3670 14.55323693852258"}}, "geometry": {"type": "Point", "coordinates": [-11.843755834431832, -42.74178055144404]}}, {"type": "Feature", "properties": {"norad_id": 36559, "name": "COSMOS 2251 DEB", "group": "cosmos-2251-debris", "lat": -39.84055826673766, "lon": -158.01531940758716, "alt_km": 1106.1469969622385, "timestamp": "2025-12-13T15:35:12.501548+00:00", "meta": {"OBJECT_NAME": "COSMOS 2251 DEB", "OBJECT_ID": "1993-036BDV", "EPOCH": "2025-12-13T00:46:12.246816", "MEAN_MOTION": 13.95198042, "ECCENTRICITY": 0.02601127, "INCLINATION": 74.1307, "RA_OF_ASC_NODE": 9.3096, "ARG_OF_PERICENTER": 42.0454, "MEAN_ANOMALY": 320.0318, "EPHEMERIS_TYPE": 0, "CLASSIFICATION_TYPE": "U", "NORAD_CAT_ID": 36559, "ELEMENT_SET_NO": 999, "REV_AT_EPOCH": 81098, "BSTAR": 0.004107797, "MEAN_MOTION_DOT": 7.345e-05, "MEAN_MOTION_DDOT": 0}, "tle": {"line1": "1 36559U 93036BDV 25347.03208619  .00007345  00000+0  41078-2 0  9999", "line2": "2 36559  74.1307   9.3096 0260112  42.0454 320.0318 13.95198042810985"}}, "geometry": {"type": "Point", "coordinates": [-158.01531940758716, -39.84055826673766]}}, {"type": "Feature", "properties": {"norad_id": 36614, "name": "COSMOS 2251 DEB", "group": "cosmos-2251-debris", "lat": -70.00546022512506, "lon": 44.79652043985917, "alt_km": 688.1379624727406, "timestamp": "2025-12-13T15:35:12.501558+00:00", "meta": {"OBJECT_NAME": "COSMOS 2251 DEB", "OBJECT_ID": "1993-036BEC", "EPOCH": "2025-12-11T06:30:21.400992", "MEAN_MOTION": 14.60233542, "ECCENTRICITY": 0.00161993, "INCLINATION": 74.0218, "RA_OF_ASC_NODE": 177.391, "ARG_OF_PERICENTER": 247.2616, "MEAN_ANOMALY": 112.6838, "EPHEMERIS_TYPE": 0, "CLASSIFICATION_TYPE": "U", "NORAD_CAT_ID": 36614, "ELEMENT_SET_NO": 999, "REV_AT_EPOCH": 65591, "BSTAR": 0.0024222077, "MEAN_MOTION_DOT": 0.00011696, "MEAN_MOTION_DDOT": 0}, "tle": {"line1": "1 36614U 93036BEC 25345.27108103  .00011696  00000+0  24222-2 0  9998", "line2": "2 36614  74.0218 177.3910 0016199 247.2616 112.6838 14.60233542655911"}}, "geometry": {"type": "Point", "coordinates": [44.79652043985917, -70.00546022512506]}}, {"type": "Feature", "properties": {"norad_id": 36622, "name": "COSMOS 2251 DEB", "group": "cosmos-2251-debris", "lat": 14.554303950419577, "lon": 147.96269099628384, "alt_km": 647.0167433266388, "timestamp": "2025-12-13T15:35:12.501568+00:00", "meta": {"OBJECT_NAME": "COSMOS 2251 DEB", "OBJECT_ID": "1993-036BEL", "EPOCH": "2025-12-11T03:20:19.288032", "MEAN_MOTION": 14.76173241, "ECCENTRICITY": 0.00687556, "INCLINATION": 74.0131, "RA_OF_ASC_NODE": 148.6142, "ARG_OF_PERICENTER": 284.3168, "MEAN_ANOMALY": 75.0379, "EPHEMERIS_TYPE": 0, "CLASSIFICATION_TYPE": "U", "NORAD_CAT_ID": 36622, "ELEMENT_SET_NO": 999, "REV_AT_EPOCH": 66726, "BSTAR": 0.0011392817, "MEAN_MOTION_DOT": 8.162e-05, "MEAN_MOTION_DDOT": 0}, "tle": {"line1": "1 36622U 93036BEL 25345.13911213  .00008162  00000+0  11393-2 0  9995", "line2": "2 36622  74.0131 148.6142 0068755 284.3168  75.0379 14.76173241667260"}}, "geometry": {"type": "Point", "coordinates": [147.96269099628384, 14.554303950419577]}}, {"type": "Feature", "properties": {"norad_id": 36632, "name": "COSMOS 2251 DEB", "group": "cosmos-2251-debris", "lat": 63.45725768079641, "lon": -34.26905499348946, "alt_km": 721.8088654915482, "timestamp": "2025-12-13T15:35:12.501577+00:00", "meta": {"OBJECT_NAME": "COSMOS 2251 DEB", "OBJECT_ID": "1993-036BEW", "EPOCH": "2025-12-11T03:22:48.137088", "MEAN_MOTION": 14.43159024, "ECCENTRICITY": 0.00319439, "INCLINATION": 74.0027, "RA_OF_ASC_NODE": 295.3456, "ARG_OF_PERICENTER": 43.4523, "MEAN_ANOMALY": 316.9142, "EPHEMERIS_TYPE": 0, "CLASSIFICATION_TYPE": "U", "NORAD_CAT_ID": 36632, "ELEMENT_SET_NO": 999, "REV_AT_EPOCH": 65192, "BSTAR": 0.001324385, "MEAN_MOTION_DOT": 4.453e-05, "MEAN_MOTION_DDOT": 0}, "tle": {"line1": "1 36632U 93036BEW 25345.14083492  .00004453  00000+0  13244-2 0  9992", "line2": "2 36632  74.0027 295.3456 0031943  43.4523 316.9142 14.43159024651929"}}, "geometry": {"type": "Point", "coordinates": [-34.26905499348946, 63.45725768079641]}}]}